{
  "type": "FeatureCollection",
  "features": [
    {
      "type": "Feature",
      "properties": {
        "norad_id": 39160,
        "name": "VNREDSAT 1",
        "group": "resource",
        "lat": -59.80859894751623,
        "lon": -147.84386546014136,
        "alt_km": 685.2777928419873,
        "timestamp": "2025-12-16T21:38:56.826676+00:00",
        "meta_object_name": "VNREDSAT 1",
        "meta_object_id": "2013-021B",
        "meta_epoch": "2025-12-16T07:26:21.607584",
        "meta_mean_motion": 14.64928767,
        "meta_eccentricity": 0.00012234,
        "meta_inclination": 97.9375,
        "meta_ra_of_asc_node": 45.4598,
        "meta_arg_of_pericenter": 77.2496,
        "meta_mean_anomaly": 282.8844,
        "meta_ephemeris_type": 0,
        "meta_classification_type": "U",
        "meta_norad_cat_id": 39160,
        "meta_element_set_no": 999,
        "meta_rev_at_epoch": 67351,
        "meta_bstar": 0.00011458048,
        "meta_mean_motion_dot": 5.67e-06,
        "meta_mean_motion_ddot": 0,
        "tle_line1": "1 39160U 13021B   25350.30997231  .00000567  00000+0  11458-3 0  9994",
        "tle_line2": "2 39160  97.9375  45.4598 0001223  77.2496 282.8844 14.64928767673511"
      },
      "geometry": {
        "type": "Point",
        "coordinates": [
          -147.84386546014136,
          -59.80859894751623
        ]
      }
    },
    {
      "type": "Feature",
      "properties": {
        "norad_id": 39227,
        "name": "ARIRANG-5 (KOMPSAT-5)",
        "group": "resource",
        "lat": -11.3906367920294,
        "lon": -6.398202522498836,
        "alt_km": 559.3679962072329,
        "timestamp": "2025-12-16T21:38:56.826686+00:00",
        "meta_object_name": "ARIRANG-5 (KOMPSAT-5)",
        "meta_object_id": "2013-042A",
        "meta_epoch": "2025-12-16T08:01:54.632640",
        "meta_mean_motion": 15.04519964,
        "meta_eccentricity": 0.00034853,
        "meta_inclination": 97.6156,
        "meta_ra_of_asc_node": 174.5873,
        "meta_arg_of_pericenter": 48.2741,
        "meta_mean_anomaly": 311.8783,
        "meta_ephemeris_type": 0,
        "meta_classification_type": "U",
        "meta_norad_cat_id": 39227,
        "meta_element_set_no": 999,
        "meta_rev_at_epoch": 67636,
        "meta_bstar": 0.00017472486,
        "meta_mean_motion_dot": 2.387e-05,
        "meta_mean_motion_ddot": 0,
        "tle_line1": "1 39227U 13042A   25350.33466010  .00002387  00000+0  17472-3 0  9994",
        "tle_line2": "2 39227  97.6156 174.5873 0003485  48.2741 311.8783 15.04519964676363"
      },
      "geometry": {
        "type": "Point",
        "coordinates": [
          -6.398202522498836,
          -11.3906367920294
        ]
      }
    },
    {
      "type": "Feature",
      "properties": {
        "norad_id": 39418,
        "name": "SKYSAT-A",
        "group": "resource",
        "lat": -48.62535810122598,
        "lon": 49.48212743967145,
        "alt_km": 537.9339981020994,
        "timestamp": "2025-12-16T21:38:56.826696+00:00",
        "meta_object_name": "SKYSAT-A",
        "meta_object_id": "2013-066C",
        "meta_epoch": "2025-12-16T02:48:08.120160",
        "meta_mean_motion": 15.11628762,
        "meta_eccentricity": 0.00209138,
        "meta_inclination": 97.4109,
        "meta_ra_of_asc_node": 40.2229,
        "meta_arg_of_pericenter": 224.2516,
        "meta_mean_anomaly": 135.7043,
        "meta_ephemeris_type": 0,
        "meta_classification_type": "U",
        "meta_norad_cat_id": 39418,
        "meta_element_set_no": 999,
        "meta_rev_at_epoch": 66081,
        "meta_bstar": 0.00013988694,
        "meta_mean_motion_dot": 2.325e-05,
        "meta_mean_motion_ddot": 0,
        "tle_line1": "1 39418U 13066C   25350.11676065  .00002325  00000+0  13989-3 0  9992",
        "tle_line2": "2 39418  97.4109  40.2229 0020913 224.2516 135.7043 15.11628762660816"
      },
      "geometry": {
        "type": "Point",
        "coordinates": [
          49.48212743967145,
          -48.62535810122598
        ]
      }
    },
    {
      "type": "Feature",
      "properties": {
        "norad_id": 39419,
        "name": "DUBAISAT-2",
        "group": "resource",
        "lat": 43.87161027645163,
        "lon": -26.04040889111057,
        "alt_km": 538.332159053487,
        "timestamp": "2025-12-16T21:38:56.826707+00:00",
        "meta_object_name": "DUBAISAT-2",
        "meta_object_id": "2013-066D",
        "meta_epoch": "2025-12-16T05:31:56.451072",
        "meta_mean_motion": 15.08396646,
        "meta_eccentricity": 0.0010162,
        "meta_inclination": 97.445,
        "meta_ra_of_asc_node": 340.5307,
        "meta_arg_of_pericenter": 309.4193,
        "meta_mean_anomaly": 50.6136,
        "meta_ephemeris_type": 0,
        "meta_classification_type": "U",
        "meta_norad_cat_id": 39419,
        "meta_element_set_no": 999,
        "meta_rev_at_epoch": 65879,
        "meta_bstar": 0.00027008975,
        "meta_mean_motion_dot": 4.143e-05,
        "meta_mean_motion_ddot": 0,
        "tle_line1": "1 39419U 13066D   25350.23051448  .00004143  00000+0  27009-3 0  9996",
        "tle_line2": "2 39419  97.4450 340.5307 0010162 309.4193  50.6136 15.08396646658792"
      },
      "geometry": {
        "type": "Point",
        "coordinates": [
          -26.04040889111057,
          43.87161027645163
        ]
      }
    },
    {
      "type": "Feature",
      "properties": {
        "norad_id": 39574,
        "name": "GPM-CORE",
        "group": "resource",
        "lat": 12.445263011134777,
        "lon": -155.33773143604668,
        "alt_km": 437.07259024105133,
        "timestamp": "2025-12-16T21:38:56.826718+00:00",
        "meta_object_name": "GPM-CORE",
        "meta_object_id": "2014-009C",
        "meta_epoch": "2025-12-16T07:36:13.436352",
        "meta_mean_motion": 15.44520878,
        "meta_eccentricity": 0.00096249,
        "meta_inclination": 64.9729,
        "meta_ra_of_asc_node": 200.7027,
        "meta_arg_of_pericenter": 246.4981,
        "meta_mean_anomaly": 113.5148,
        "meta_ephemeris_type": 0,
        "meta_classification_type": "U",
        "meta_norad_cat_id": 39574,
        "meta_element_set_no": 999,
        "meta_rev_at_epoch": 66956,
        "meta_bstar": 0.00013139425,
        "meta_mean_motion_dot": 5.885e-05,
        "meta_mean_motion_ddot": 0,
        "tle_line1": "1 39574U 14009C   25350.31682218  .00005885  00000+0  13139-3 0  9993",
        "tle_line2": "2 39574  64.9729 200.7027 0009624 246.4981 113.5148 15.44520878669569"
      },
      "geometry": {
        "type": "Point",
        "coordinates": [
          -155.33773143604668,
          12.445263011134777
        ]
      }
    },
    {
      "type": "Feature",
      "properties": {
        "norad_id": 39634,
        "name": "SENTINEL-1A",
        "group": "resource",
        "lat": 15.801286468453444,
        "lon": -6.250574247508562,
        "alt_km": 696.1079446036229,
        "timestamp": "2025-12-16T21:38:56.826729+00:00",
        "meta_object_name": "SENTINEL-1A",
        "meta_object_id": "2014-016A",
        "meta_epoch": "2025-12-16T06:45:53.125632",
        "meta_mean_motion": 14.59200928,
        "meta_eccentricity": 0.00012495,
        "meta_inclination": 98.1806,
        "meta_ra_of_asc_node": 355.4715,
        "meta_arg_of_pericenter": 83.7447,
        "meta_mean_anomaly": 276.3895,
        "meta_ephemeris_type": 0,
        "meta_classification_type": "U",
        "meta_norad_cat_id": 39634,
        "meta_element_set_no": 999,
        "meta_rev_at_epoch": 62334,
        "meta_bstar": 5.9434784e-05,
        "meta_mean_motion_dot": 2.34e-06,
        "meta_mean_motion_ddot": 0,
        "tle_line1": "1 39634U 14016A   25350.28186488  .00000234  00000+0  59435-4 0  9995",
        "tle_line2": "2 39634  98.1806 355.4715 0001249  83.7447 276.3895 14.59200928623346"
      },
      "geometry": {
        "type": "Point",
        "coordinates": [
          -6.250574247508562,
          15.801286468453444
        ]
      }
    },
    {
      "type": "Feature",
      "properties": {
        "norad_id": 39731,
        "name": "KAZEOSAT 1",
        "group": "resource",
        "lat": 80.63634110429054,
        "lon": -54.41776964172632,
        "alt_km": 743.4515840014265,
        "timestamp": "2025-12-16T21:38:56.826739+00:00",
        "meta_object_name": "KAZEOSAT 1",
        "meta_object_id": "2014-024A",
        "meta_epoch": "2025-12-16T07:53:30.427296",
        "meta_mean_motion": 14.42065049,
        "meta_eccentricity": 0.00011272,
        "meta_inclination": 98.3432,
        "meta_ra_of_asc_node": 62.1555,
        "meta_arg_of_pericenter": 97.5397,
        "meta_mean_anomaly": 262.5921,
        "meta_ephemeris_type": 0,
        "meta_classification_type": "U",
        "meta_norad_cat_id": 39731,
        "meta_element_set_no": 999,
        "meta_rev_at_epoch": 61220,
        "meta_bstar": 7.5225353e-05,
        "meta_mean_motion_dot": 2.04e-06,
        "meta_mean_motion_ddot": 0,
        "tle_line1": "1 39731U 14024A   25350.32882439  .00000204  00000+0  75225-4 0  9998",
        "tle_line2": "2 39731  98.3432  62.1555 0001127  97.5397 262.5921 14.42065049612202"
      },
      "geometry": {
        "type": "Point",
        "coordinates": [
          -54.41776964172632,
          80.63634110429054
        ]
      }
    }
  ]
}